{
  "type": "FeatureCollection",
  "features": [
    {
      "type": "Feature",
      "properties": {
        "norad_id": 35108,
        "name": "FENGYUN 1C DEB",
        "group": "fengyun-1c-debris",
        "lat": 18.417593189954935,
        "lon": -26.464644809232983,
        "alt_km": 819.450666093745,
        "timestamp": "2025-12-06T16:45:43.009460+00:00",
        "meta_object_name": "FENGYUN 1C DEB",
        "meta_object_id": "1999-025DKL",
        "meta_epoch": "2025-11-17T16:56:54.235392",
        "meta_mean_motion": 14.06875481,
        "meta_eccentricity": 0.01346692,
        "meta_inclination": 98.7997,
        "meta_ra_of_asc_node": 318.0085,
        "meta_arg_of_pericenter": 131.4741,
        "meta_mean_anomaly": 229.8083,
        "meta_ephemeris_type": 0,
        "meta_classification_type": "U",
        "meta_norad_cat_id": 35108,
        "meta_element_set_no": 999,
        "meta_rev_at_epoch": 88886,
        "meta_bstar": 0.00053903391,
        "meta_mean_motion_dot": 9.33e-06,
        "meta_mean_motion_ddot": 0,
        "tle_line1": "1 35108U 99025DKL 25321.70618328  .00000933  00000+0  53903-3 0  9997",
        "tle_line2": "2 35108  98.7997 318.0085 0134669 131.4741 229.8083 14.06875481888867"
      },
      "geometry": {
        "type": "Point",
        "coordinates": [
          -26.464644809232983,
          18.417593189954935
        ]
      }
    },
    {
      "type": "Feature",
      "properties": {
        "norad_id": 35109,
        "name": "FENGYUN 1C DEB",
        "group": "fengyun-1c-debris",
        "lat": -52.65614821021335,
        "lon": 138.6690614401968,
        "alt_km": 940.0099617713013,
        "timestamp": "2025-12-06T16:45:43.009470+00:00",
        "meta_object_name": "FENGYUN 1C DEB",
        "meta_object_id": "1999-025DKM",
        "meta_epoch": "2025-12-04T06:12:38.801088",
        "meta_mean_motion": 14.20856308,
        "meta_eccentricity": 0.015369,
        "meta_inclination": 98.6153,
        "meta_ra_of_asc_node": 327.7504,
        "meta_arg_of_pericenter": 58.8036,
        "meta_mean_anomaly": 302.8103,
        "meta_ephemeris_type": 0,
        "meta_classification_type": "U",
        "meta_norad_cat_id": 35109,
        "meta_element_set_no": 999,
        "meta_rev_at_epoch": 64039,
        "meta_bstar": 0.00051563,
        "meta_mean_motion_dot": 1.214e-05,
        "meta_mean_motion_ddot": 0,
        "tle_line1": "1 35109U 99025DKM 25338.25878242  .00001214  00000+0  51563-3 0  9992",
        "tle_line2": "2 35109  98.6153 327.7504 0153690  58.8036 302.8103 14.20856308640390"
      },
      "geometry": {
        "type": "Point",
        "coordinates": [
          138.6690614401968,
          -52.65614821021335
        ]
      }
    },
    {
      "type": "Feature",
      "properties": {
        "norad_id": 35111,
        "name": "FENGYUN 1C DEB",
        "group": "fengyun-1c-debris",
        "lat": -57.70853607723517,
        "lon": 74.33734129379502,
        "alt_km": 856.1992974849272,
        "timestamp": "2025-12-06T16:45:43.009480+00:00",
        "meta_object_name": "FENGYUN 1C DEB",
        "meta_object_id": "1999-025DKP",
        "meta_epoch": "2025-12-05T12:06:31.003200",
        "meta_mean_motion": 14.10949301,
        "meta_eccentricity": 0.00215264,
        "meta_inclination": 99.4667,
        "meta_ra_of_asc_node": 57.7715,
        "meta_arg_of_pericenter": 240.7618,
        "meta_mean_anomaly": 119.1399,
        "meta_ephemeris_type": 0,
        "meta_classification_type": "U",
        "meta_norad_cat_id": 35111,
        "meta_element_set_no": 999,
        "meta_rev_at_epoch": 64042,
        "meta_bstar": 0.00080865112,
        "meta_mean_motion_dot": 1.406e-05,
        "meta_mean_motion_ddot": 0,
        "tle_line1": "1 35111U 99025DKP 25339.50452550  .00001406  00000+0  80865-3 0  9994",
        "tle_line2": "2 35111  99.4667  57.7715 0021526 240.7618 119.1399 14.10949301640421"
      },
      "geometry": {
        "type": "Point",
        "coordinates": [
          74.33734129379502,
          -57.70853607723517
        ]
      }
    },
    {
      "type": "Feature",
      "properties": {
        "norad_id": 35116,
        "name": "FENGYUN 1C DEB",
        "group": "fengyun-1c-debris",
        "lat": -58.54213989051499,
        "lon": -167.68677763127172,
        "alt_km": 858.2971580957728,
        "timestamp": "2025-12-06T16:45:43.009490+00:00",
        "meta_object_name": "FENGYUN 1C DEB",
        "meta_object_id": "1999-025DKU",
        "meta_epoch": "2025-11-29T08:23:15.339840",
        "meta_mean_motion": 14.24983182,
        "meta_eccentricity": 0.00599996,
        "meta_inclination": 98.6639,
        "meta_ra_of_asc_node": 19.4914,
        "meta_arg_of_pericenter": 87.929,
        "meta_mean_anomaly": 272.8759,
        "meta_ephemeris_type": 0,
        "meta_classification_type": "U",
        "meta_norad_cat_id": 35116,
        "meta_element_set_no": 999,
        "meta_rev_at_epoch": 59769,
        "meta_bstar": 0.0010519384,
        "meta_mean_motion_dot": 2.465e-05,
        "meta_mean_motion_ddot": 0,
        "tle_line1": "1 35116U 99025DKU 25333.34948310  .00002465  00000+0  10519-2 0  9993",
        "tle_line2": "2 35116  98.6639  19.4914 0059999  87.9290 272.8759 14.24983182597691"
      },
      "geometry": {
        "type": "Point",
        "coordinates": [
          -167.68677763127172,
          -58.54213989051499
        ]
      }
    },
    {
      "type": "Feature",
      "properties": {
        "norad_id": 35121,
        "name": "FENGYUN 1C DEB",
        "group": "fengyun-1c-debris",
        "lat": 37.67235549250058,
        "lon": 30.930062931417684,
        "alt_km": 773.0568296945394,
        "timestamp": "2025-12-06T16:45:43.009500+00:00",
        "meta_object_name": "FENGYUN 1C DEB",
        "meta_object_id": "1999-025DKZ",
        "meta_epoch": "2025-11-23T20:23:41.984736",
        "meta_mean_motion": 14.04733583,
        "meta_eccentricity": 0.0157971,
        "meta_inclination": 98.3025,
        "meta_ra_of_asc_node": 192.694,
        "meta_arg_of_pericenter": 150.2058,
        "meta_mean_anomaly": 210.8223,
        "meta_ephemeris_type": 0,
        "meta_classification_type": "U",
        "meta_norad_cat_id": 35121,
        "meta_element_set_no": 999,
        "meta_rev_at_epoch": 60826,
        "meta_bstar": 0.00039097454,
        "meta_mean_motion_dot": 6.63e-06,
        "meta_mean_motion_ddot": 0,
        "tle_line1": "1 35121U 99025DKZ 25327.84979149  .00000663  00000+0  39097-3 0  9992",
        "tle_line2": "2 35121  98.3025 192.6940 0157971 150.2058 210.8223 14.04733583608261"
      },
      "geometry": {
        "type": "Point",
        "coordinates": [
          30.930062931417684,
          37.67235549250058
        ]
      }
    },
    {
      "type": "Feature",
      "properties": {
        "norad_id": 35122,
        "name": "FENGYUN 1C DEB",
        "group": "fengyun-1c-debris",
        "lat": -38.153743036739996,
        "lon": 172.40353075143491,
        "alt_km": 838.6379166117367,
        "timestamp": "2025-12-06T16:45:43.009511+00:00",
        "meta_object_name": "FENGYUN 1C DEB",
        "meta_object_id": "1999-025DLA",
        "meta_epoch": "2025-12-06T07:14:30.669504",
        "meta_mean_motion": 14.14113631,
        "meta_eccentricity": 0.00250368,
        "meta_inclination": 98.6724,
        "meta_ra_of_asc_node": 358.9052,
        "meta_arg_of_pericenter": 175.8226,
        "meta_mean_anomaly": 184.3161,
        "meta_ephemeris_type": 0,
        "meta_classification_type": "U",
        "meta_norad_cat_id": 35122,
        "meta_element_set_no": 999,
        "meta_rev_at_epoch": 63776,
        "meta_bstar": 0.00051441164,
        "meta_mean_motion_dot": 9.4e-06,
        "meta_mean_motion_ddot": 0,
        "tle_line1": "1 35122U 99025DLA 25340.30174386  .00000940  00000+0  51441-3 0  9994",
        "tle_line2": "2 35122  98.6724 358.9052 0025036 175.8226 184.3161 14.14113631637768"
      },
      "geometry": {
        "type": "Point",
        "coordinates": [
          172.40353075143491,
          -38.153743036739996
        ]
      }
    },
    {
      "type": "Feature",
      "properties": {
        "norad_id": 35123,
        "name": "FENGYUN 1C DEB",
        "group": "fengyun-1c-debris",
        "lat": 25.07009013063729,
        "lon": -12.537385576855614,
        "alt_km": 793.0818329033946,
        "timestamp": "2025-12-06T16:45:43.009521+00:00",
        "meta_object_name": "FENGYUN 1C DEB",
        "meta_object_id": "1999-025DLB",
        "meta_epoch": "2025-12-05T23:10:58.256256",
        "meta_mean_motion": 14.2418948,
        "meta_eccentricity": 0.0049671,
        "meta_inclination": 99.1223,
        "meta_ra_of_asc_node": 162.3921,
        "meta_arg_of_pericenter": 95.3297,
        "meta_mean_anomaly": 265.355,
        "meta_ephemeris_type": 0,
        "meta_classification_type": "U",
        "meta_norad_cat_id": 35123,
        "meta_element_set_no": 999,
        "meta_rev_at_epoch": 60977,
        "meta_bstar": 0.00090983273,
        "meta_mean_motion_dot": 2.077e-05,
        "meta_mean_motion_ddot": 0,
        "tle_line1": "1 35123U 99025DLB 25339.96595204  .00002077  00000+0  90983-3 0  9998",
        "tle_line2": "2 35123  99.1223 162.3921 0049671  95.3297 265.3550 14.24189480609774"
      },
      "geometry": {
        "type": "Point",
        "coordinates": [
          -12.537385576855614,
          25.07009013063729
        ]
      }
    }
  ]
}